{"type":"FeatureCollection","source":"Hong Kong Home Affairs Department 18-district boundary","source_url":"https://www.had.gov.hk/psi/hong-kong-administrative-boundaries/hksar_18_district_boundary.json","simplification_tolerance_degrees":0.0002,"features":[{"type":"Feature","properties":{"district_code":"CW","district":"Central and Western District","district_zh":"中西區"},"geometry":{"type":"Polygon","coordinates":[[[114.1101052047,22.2730292477],[114.1162832709,22.2730354612],[114.1185324369,22.274235481],[114.1192486879,22.2735324754],[114.1203307545,22.273337044],[114.1212518473,22.2725811899],[114.122002506,22.2724639654],[114.1228520857,22.2728702316],[114.1237589916,22.2727432164],[114.1253286433,22.2734324889],[114.1261830668,22.2742530108],[114.1281593862,22.2746889823],[114.1292664664,22.275603753],[114.1363544832,22.2720683442],[114.1430347571,22.2618263404],[114.1433350754,22.2605503345],[114.1431682929,22.2598481122],[114.1441332505,22.2590908897],[114.1447438033,22.2591810651],[114.1464905117,22.2573157202],[114.1468426449,22.2563091195],[114.1461978657,22.256042694],[114.1460653931,22.2547871357],[114.1452932725,22.2547301126],[114.145990531,22.2528171991],[114.1468293595,22.2520919587],[114.1480038554,22.2523501774],[114.1489703254,22.253560961],[114.1494727526,22.2533603759],[114.150819457,22.2540785169],[114.1517493802,22.2541362787],[114.1535271343,22.2562486623],[114.1538359793,22.2559271424],[114.1541719996,22.2561925105],[114.1542387417,22.2568283688],[114.1552474704,22.258096131],[114.1551579853,22.2593326695],[114.1583130057,22.2578751767],[114.1617790509,22.2589796504],[114.1626818101,22.2584276329],[114.1633839858,22.2588222963],[114.1635712267,22.2604062625],[114.1646455504,22.2612607914],[114.1645123033,22.2615993317],[114.1648540114,22.2616613347],[114.1647264788,22.2621125601],[114.1651144866,22.2622877833],[114.1652302368,22.2631691657],[114.1660671341,22.2638645386],[114.1662488483,22.2657625775],[114.1657659631,22.2666705594],[114.1664780412,22.2673972939],[114.1666062248,22.2679896315],[114.1671904904,22.2683361823],[114.1655691942,22.269167214],[114.1654682485,22.2727849297],[114.1661698792,22.2730962455],[114.1663009754,22.2752741927],[114.1665566814,22.2756044597],[114.1671429581,22.2753849246],[114.167405023,22.2761325237],[114.167100707,22.2761527344],[114.167082628,22.2766069837],[114.1680703149,22.2774224888],[114.1671783439,22.2779429734],[114.1672250729,22.2785290737],[114.1682002544,22.2797023891],[114.1665521624,22.2795541455],[114.1677087586,22.2808725252],[114.1674362321,22.2824620913],[114.1674400125,22.2906586983],[114.1495089876,22.2974776618],[114.1098602267,22.2976051419],[114.1101052047,22.2730292477]]]}},{"type":"Feature","properties":{"district_code":"EST","district":"Eastern District","district_zh":"東區"},"geometry":{"type":"Polygon","coordinates":[[[114.2615824496,22.2457354295],[114.2615988694,22.2730066511],[114.210865753,22.3002748985],[114.1995425828,22.3002603979],[114.1863271305,22.2938674082],[114.1894914617,22.288199445],[114.1914923772,22.2867001469],[114.1919455011,22.2874169116],[114.1924864262,22.2868829243],[114.1929085404,22.2869032019],[114.1929289825,22.285345985],[114.1923907805,22.2830612872],[114.1931409917,22.2831278145],[114.1934499265,22.2852274054],[114.193981909,22.2860361515],[114.1949031423,22.2860095286],[114.1954411777,22.2866421718],[114.1958674925,22.2863695147],[114.1956211783,22.2857475587],[114.1946398324,22.285235181],[114.1946773726,22.2847520381],[114.1952231721,22.2845493478],[114.194811136,22.2826247401],[114.1934421349,22.2808780268],[114.1940106471,22.2799666951],[114.1947137109,22.2795520767],[114.1948131247,22.2792066438],[114.1942830715,22.2790757574],[114.19530362,22.2783119956],[114.1951816585,22.277770171],[114.1960165749,22.2766615633],[114.1952740989,22.2762829223],[114.1953719448,22.2757748743],[114.1973289602,22.2739577187],[114.1977868833,22.2731625481],[114.2007265152,22.2743705056],[114.202200003,22.277663116],[114.2025499436,22.277762398],[114.2045810275,22.2752227556],[114.2071646131,22.2704512952],[114.2031393021,22.2675029211],[114.1983717422,22.266350075],[114.1973736623,22.259146079],[114.1977183567,22.2578963269],[114.1988355309,22.2582151153],[114.200408665,22.2592348717],[114.2018007822,22.2588731664],[114.2050755829,22.2593095605],[114.206231458,22.2575923648],[114.2076710278,22.2572924335],[114.2087485396,22.2576533615],[114.2094252367,22.2569129296],[114.2100933817,22.257002279],[114.2113574423,22.2557847361],[114.2109000056,22.2548723202],[114.211226598,22.254636551],[114.2116269174,22.2555657212],[114.2127246955,22.2558619861],[114.2106519663,22.2566059615],[114.2103789424,22.2573366258],[114.2106082073,22.258001822],[114.2112696987,22.2576778074],[114.2120882558,22.2583937995],[114.2113969292,22.2591097182],[114.2118812581,22.259714488],[114.2116756304,22.2601574138],[114.2121029107,22.2604278079],[114.2140157568,22.2597696785],[114.2146301016,22.2598574321],[114.2171373021,22.2574110105],[114.2182058785,22.2581819062],[114.2186067031,22.2577472573],[114.221361764,22.2566979935],[114.2282542908,22.2571962479],[114.2300373738,22.2564080105],[114.2304929813,22.2557973428],[114.2307575559,22.2561342976],[114.2314459553,22.2557420105],[114.2320411977,22.2550059187],[114.2337331473,22.2546085277],[114.2344504033,22.2552376219],[114.2347310764,22.2561289839],[114.2352703789,22.2561531827],[114.235784343,22.2568079005],[114.2363439999,22.25643613],[114.2365923652,22.257245195],[114.2369503743,22.2568993964],[114.2375072604,22.2572182155],[114.2387594004,22.2562332838],[114.2426619814,22.2553904171],[114.2428965527,22.2545375745],[114.2441163634,22.2536320842],[114.2473818491,22.2533913959],[114.2501787411,22.2458011193],[114.2615824496,22.2457354295]]]}},{"type":"Feature","properties":{"district_code":"IS","district":"Islands District","district_zh":"離島區"},"geometry":{"type":"Polygon","coordinates":[[[114.3090686836,22.1928283591],[114.2000122981,22.1926441003],[114.1102412856,22.2611978817],[114.1098701191,22.3117269189],[114.0104645616,22.3138551466],[114.0100921304,22.3140185607],[114.0101135591,22.3147470247],[114.0098098956,22.3150113441],[114.0092330539,22.3144315372],[114.0078727777,22.3145268702],[114.0069661536,22.3139289301],[113.9946000433,22.3141891505],[113.9945811232,22.3246351133],[113.8658643448,22.3243459666],[113.8473792303,22.2731091255],[113.8389896758,22.2677187222],[113.8263795777,22.2392819124],[113.8171045909,22.2170554958],[113.832383553,22.1838649483],[113.8965498137,22.1425280773],[113.9223843115,22.1367275272],[113.9395509161,22.1484752796],[114.2359895659,22.1484745434],[114.2551592123,22.1385596946],[114.2839952453,22.1484771594],[114.3092437251,22.1484920192],[114.3090686836,22.1928283591]]]}},{"type":"Feature","properties":{"district_code":"KC","district":"Kowloon City District","district_zh":"九龍城區"},"geometry":{"type":"Polygon","coordinates":[[[114.2193862235,22.2956774414],[114.219331574,22.3031054527],[114.2153162929,22.3068597115],[114.2152921446,22.3081278402],[114.2131997502,22.3099849881],[114.2128502714,22.3093794015],[114.2118986812,22.3098551616],[114.2089677491,22.3124550292],[114.2104918523,22.3138799474],[114.2098277324,22.3145173281],[114.2108137873,22.3154865231],[114.2105670496,22.3157310149],[114.2108638935,22.3160294683],[114.2099737768,22.3168356424],[114.2085942971,22.3172836916],[114.2064072748,22.3200022781],[114.2050033923,22.3208463467],[114.2049379841,22.3213845091],[114.2043712094,22.3219471128],[114.2034479452,22.3227343643],[114.2022551755,22.322819055],[114.2021517096,22.3236383624],[114.2017100489,22.3237664303],[114.2017546885,22.3244794065],[114.2051163348,22.3278904839],[114.2048220985,22.3289047508],[114.2046475123,22.3349602813],[114.2036191584,22.3353199348],[114.2022983723,22.3351942795],[114.1978284605,22.3334144607],[114.1968819871,22.3322034173],[114.1955935372,22.3317609648],[114.1941826603,22.3304291113],[114.1916436513,22.3305231639],[114.1925144335,22.3313078575],[114.1917492033,22.3319007513],[114.1907304081,22.3334200472],[114.1898100031,22.3326553509],[114.1887822587,22.3323280714],[114.1871672898,22.3324704141],[114.1874515635,22.3347533621],[114.1867100161,22.3347794442],[114.1865281016,22.3361154206],[114.1860736832,22.336135197],[114.1861498387,22.3379335142],[114.1842962426,22.33945798],[114.1831871874,22.339687178],[114.1844529715,22.3430967235],[114.1826983619,22.3440692803],[114.1816978718,22.3441393004],[114.1814594974,22.3464212591],[114.1794524018,22.3490189815],[114.178887153,22.3490587784],[114.178537505,22.3487430649],[114.1778982843,22.3490695975],[114.1771834528,22.3488054386],[114.1768859609,22.3493265114],[114.1756409255,22.349170179],[114.1742825697,22.34802861],[114.1734731582,22.3484944458],[114.1728866659,22.347946449],[114.1733300707,22.3470018984],[114.1727251108,22.346468214],[114.1740072329,22.3441714164],[114.1731280201,22.3429808538],[114.1737956429,22.3415427044],[114.1730514412,22.3406584695],[114.1734178469,22.3403265228],[114.1739585454,22.340551232],[114.1762196893,22.3357916473],[114.1768595712,22.3328817796],[114.1761247257,22.3298092763],[114.1729595954,22.3235591447],[114.1728892512,22.3205513781],[114.175603557,22.313936175],[114.1765249702,22.3124598476],[114.1817339012,22.3070375456],[114.1824839456,22.3047265611],[114.1834970951,22.3039261757],[114.1846082438,22.3040280457],[114.1853748403,22.3028485189],[114.1857132643,22.301273363],[114.1865894126,22.3010880045],[114.1868581824,22.3002448176],[114.1868577456,22.2941241259],[114.1995425828,22.3002603979],[114.210865753,22.3002748985],[114.2193862235,22.2956774414]]]}},{"type":"Feature","properties":{"district_code":"KUI","district":"Kwai Tsing District","district_zh":"葵青區"},"geometry":{"type":"Polygon","coordinates":[[[114.0726929411,22.3125300052],[114.1098701191,22.3117269189],[114.1098602267,22.2976051419],[114.1495089876,22.2974776618],[114.1495249819,22.3137963721],[114.131765056,22.3137530271],[114.1319618635,22.318284689],[114.1311767192,22.3188993268],[114.1303344255,22.3209310066],[114.1304227001,22.3213776669],[114.1322539594,22.3226946239],[114.135108589,22.323612178],[114.1362512991,22.325417872],[114.1380195059,22.3266994742],[114.1379815012,22.3270990955],[114.1400490779,22.3285982032],[114.14056708,22.3283749936],[114.1404279741,22.3289391481],[114.1418804565,22.3301383588],[114.142145546,22.3309658969],[114.1417790464,22.3315535011],[114.1387555774,22.3328845404],[114.1389069697,22.3335898008],[114.1364432355,22.3344119633],[114.1339869145,22.3357218947],[114.1324538968,22.337548042],[114.1316733725,22.3393134204],[114.1329930774,22.3387819545],[114.1341091375,22.3397016279],[114.135201846,22.339642446],[114.135838687,22.3403436064],[114.1359663248,22.3413933519],[114.1381800085,22.3420354628],[114.1382749004,22.341256319],[114.140880596,22.3398769026],[114.1416504714,22.3400226896],[114.1433204583,22.3412636181],[114.1439478378,22.3411203863],[114.1453678072,22.3399980601],[114.1467832621,22.3399955022],[114.1489230488,22.340602062],[114.146953138,22.3415150173],[114.1468367284,22.3447692148],[114.1462059095,22.3465082932],[114.1453877148,22.3469764614],[114.1447338657,22.3479701917],[114.1449347696,22.3489173205],[114.1443189159,22.3486950372],[114.1421791175,22.3493272024],[114.1421483953,22.3511950134],[114.1413093698,22.3558939442],[114.1417040216,22.3590629047],[114.1421898041,22.3596232375],[114.1429623312,22.3598169618],[114.143244912,22.3606371389],[114.1446191051,22.3619184373],[114.1456331681,22.3622399066],[114.1453362742,22.3631228829],[114.1461276055,22.364098713],[114.1446251462,22.3665108943],[114.1444911051,22.3672056684],[114.1454030259,22.3673519983],[114.1447385132,22.3681116343],[114.1453148732,22.3684827401],[114.1449797677,22.3692352525],[114.1461663702,22.3697011323],[114.1471344204,22.3708526341],[114.1468081376,22.3709152819],[114.1460482117,22.3720606355],[114.1454925557,22.3722083316],[114.1455892939,22.3729860148],[114.1449980249,22.3735754399],[114.1450020979,22.3741952242],[114.146408076,22.3758278084],[114.1485003507,22.3764499132],[114.1484855644,22.3781183189],[114.1495391744,22.3775541553],[114.1498714004,22.3779651542],[114.1495150462,22.3788416246],[114.1498221248,22.3792585885],[114.1490095056,22.3802802007],[114.146369948,22.3781351737],[114.1454189677,22.3789083031],[114.1442246689,22.3783936789],[114.144231972,22.3790560244],[114.1438137069,22.3791900249],[114.1435635941,22.3803736228],[114.1441073654,22.3803714218],[114.1443962611,22.3807147845],[114.1428759824,22.3815906502],[114.1437963439,22.3816226191],[114.1438508504,22.382434664],[114.1445859588,22.3827838961],[114.1444668654,22.384445082],[114.1435150311,22.3845023138],[114.1385346664,22.3820071889],[114.1375633938,22.3821434705],[114.13671532,22.3816839519],[114.1350429923,22.3815335948],[114.1360430163,22.380893631],[114.1359946794,22.3804255126],[114.1371288239,22.3801053015],[114.1374857397,22.3793144501],[114.1364015909,22.3758682417],[114.136355978,22.3725631008],[114.1346801948,22.3709339619],[114.134467442,22.3698024976],[114.1339419525,22.3700056546],[114.1327799344,22.3695065228],[114.1307827619,22.370716158],[114.1298623584,22.3709454227],[114.1233890163,22.3703721249],[114.1200982419,22.3642691245],[114.1160186928,22.3624380737],[114.1132254815,22.3605919159],[114.1100815896,22.3600063379],[114.1100940526,22.3647402164],[114.0789861747,22.3648336905],[114.0724254784,22.361972024],[114.0726929411,22.3125300052]]]}},{"type":"Feature","properties":{"district_code":"KWT","district":"Kwun Tong District","district_zh":"觀塘區"},"geometry":{"type":"Polygon","coordinates":[[[114.2442337198,22.2822899639],[114.2442275798,22.2856347671],[114.2431703668,22.2865965039],[114.2419666425,22.2863452355],[114.2419233372,22.2870208431],[114.2423480509,22.2872935236],[114.2410703042,22.2892130692],[114.2415203685,22.290179393],[114.241057875,22.2921257208],[114.2415239034,22.2922725723],[114.2415551425,22.2928240508],[114.2419809621,22.2928710564],[114.2421550646,22.2942088365],[114.2444798112,22.2950813164],[114.2441336882,22.294797041],[114.2453909211,22.2947906448],[114.2454295932,22.2952492393],[114.2448217726,22.2959074749],[114.24543652,22.2965370564],[114.2454122388,22.2971317327],[114.2451485786,22.2979487623],[114.2447705383,22.2981248555],[114.2443868939,22.2997465344],[114.2437053022,22.3003819397],[114.2437248609,22.3022037851],[114.2421664192,22.3028710597],[114.242232465,22.3032349847],[114.2413772987,22.3039861862],[114.241470353,22.3044159518],[114.2407142552,22.3046797464],[114.2406169179,22.3050076048],[114.2401517224,22.3049917667],[114.2399565313,22.305326788],[114.2402035805,22.305539525],[114.2398600429,22.3059075296],[114.2407446948,22.3088706845],[114.2418686472,22.3092447007],[114.2418971968,22.3106201491],[114.2423095795,22.3103956811],[114.2426345311,22.3107833958],[114.2434993865,22.3107839366],[114.2435381195,22.311394606],[114.2440655883,22.3119399176],[114.2438816138,22.3125944141],[114.2444972867,22.312926963],[114.2447164936,22.3135049922],[114.2455757037,22.3135972119],[114.2443857945,22.3152161031],[114.2421381111,22.3153738221],[114.2415903331,22.3165127275],[114.2420964555,22.3171299823],[114.2430186576,22.3199602384],[114.2428358348,22.3216514261],[114.2417489914,22.3207269069],[114.2412291845,22.3208137176],[114.2406666353,22.3196071101],[114.2392020138,22.319390982],[114.2385922974,22.31966151],[114.2377778815,22.3210776341],[114.2371289572,22.3213149297],[114.2364173931,22.3222056359],[114.2345112701,22.3219737154],[114.2339283992,22.3222183075],[114.2326235131,22.3237088087],[114.2313682901,22.3278562068],[114.230775244,22.3288783149],[114.2302784746,22.3291228741],[114.230019805,22.3301027771],[114.2297061312,22.3300469985],[114.2292543511,22.3305376232],[114.2294252691,22.3317335506],[114.2284993186,22.3329258847],[114.2288915967,22.3339010614],[114.2285042611,22.3344060307],[114.2249318376,22.3341421642],[114.2239764369,22.334516645],[114.2215391716,22.3339094695],[114.2181450781,22.333867448],[114.2182840245,22.3330493415],[114.2141347501,22.3322948696],[114.2132721289,22.3325874308],[114.211961474,22.3340873561],[114.2110569864,22.3344431286],[114.2083898969,22.3340480222],[114.2071768879,22.3329024993],[114.2046475123,22.3349602813],[114.2048220985,22.3289047508],[114.2051163348,22.3278904839],[114.2017546885,22.3244794065],[114.2017100489,22.3237664303],[114.2021517096,22.3236383624],[114.2022551755,22.322819055],[114.2034479452,22.3227343643],[114.2043712094,22.3219471128],[114.2049379841,22.3213845091],[114.2050033923,22.3208463467],[114.2064072748,22.3200022781],[114.2085942971,22.3172836916],[114.2099737768,22.3168356424],[114.2108638935,22.3160294683],[114.2105670496,22.3157310149],[114.2108137873,22.3154865231],[114.2098277324,22.3145173281],[114.2104918523,22.3138799474],[114.2089677491,22.3124550292],[114.2118986812,22.3098551616],[114.2128502714,22.3093794015],[114.2131997502,22.3099849881],[114.2152921446,22.3081278402],[114.2153162929,22.3068597115],[114.219331574,22.3031054527],[114.2193862235,22.2956774414],[114.2442337198,22.2822899639]]]}},{"type":"Feature","properties":{"district_code":"NOR","district":"North District","district_zh":"北區"},"geometry":{"type":"Polygon","coordinates":[[[114.0889336252,22.4660933255],[114.0924407515,22.466020228],[114.0942261449,22.4668170938],[114.0962788488,22.4667470987],[114.0983512842,22.467384368],[114.099470162,22.4673940021],[114.1007057436,22.4678802282],[114.1025853912,22.4693467962],[114.104254556,22.469984273],[114.1088658983,22.469173734],[114.1098225794,22.4703087798],[114.1116211286,22.4706483747],[114.1123419746,22.4712134361],[114.113406705,22.4713298722],[114.1143858148,22.4709488726],[114.1148750703,22.4714269422],[114.1160879959,22.4702628133],[114.1161017408,22.4694247681],[114.1168639972,22.4693428855],[114.1188160158,22.468016994],[114.1202983772,22.4677626277],[114.1209210408,22.4664155231],[114.1223519298,22.4657253114],[114.1231065819,22.4657994245],[114.1236697686,22.4662553768],[114.1259541948,22.4656945293],[114.1265773902,22.4661704657],[114.12790925,22.4665079721],[114.1280992661,22.4669924407],[114.129305303,22.4674421276],[114.1299809567,22.4682929103],[114.1311398987,22.4686471172],[114.1328105053,22.4678778653],[114.1348709689,22.4680046148],[114.1357425624,22.4684528388],[114.1362438189,22.4692486546],[114.1386478753,22.4710834106],[114.1387061746,22.4715792226],[114.1416559668,22.4725891242],[114.1421372944,22.473384917],[114.1435828244,22.4735407435],[114.1439333773,22.4739744012],[114.1438928542,22.4747325789],[114.1457902566,22.4746810838],[114.1481323406,22.4765352462],[114.1489952045,22.4797192155],[114.1497951,22.479704326],[114.151079462,22.4804183635],[114.151521296,22.480125504],[114.1529350892,22.4801316799],[114.1533179676,22.4807986152],[114.1530164525,22.4823363148],[114.1533167288,22.483989746],[114.15119117,22.4855318339],[114.1518923144,22.4857717645],[114.1523265526,22.4863188472],[114.1514916193,22.486959607],[114.151940842,22.4873020649],[114.1514428586,22.4882254546],[114.159533834,22.48829439],[114.1640703523,22.489758018],[114.1644337829,22.488948634],[114.163801126,22.4875213193],[114.1638534048,22.4871272627],[114.1642365717,22.4869977348],[114.1640552436,22.4860279811],[114.1655892776,22.4856326538],[114.1663552847,22.4860913961],[114.1684479693,22.4864045126],[114.168888989,22.4869603656],[114.1701124411,22.4852519041],[114.1696075614,22.4850198368],[114.1696423978,22.4846582788],[114.1706695806,22.4846637126],[114.1717867531,22.4839692316],[114.1723774915,22.4870596629],[114.1736273572,22.488098632],[114.1748237716,22.4906755859],[114.1792151468,22.4944341427],[114.1833440191,22.4956235222],[114.1908608706,22.4951055746],[114.1914903216,22.4948720106],[114.1915771948,22.4943446445],[114.1938283882,22.4949748442],[114.1957619006,22.4930797628],[114.1971354089,22.4932777678],[114.1975650473,22.4929742465],[114.2005982317,22.4929322159],[114.2024957665,22.4924711669],[114.207451044,22.4895284767],[114.2093320746,22.4902652513],[114.2115204173,22.4903889724],[114.2132630066,22.4903674108],[114.2150472593,22.4898984201],[114.2160000691,22.4901659067],[114.2176660758,22.4899698948],[114.219436601,22.489102247],[114.2205232613,22.4891986176],[114.2217629804,22.4878875047],[114.2231739536,22.4874379049],[114.2236341392,22.4869662232],[114.2241028691,22.4874872582],[114.2240300471,22.4884650015],[114.224591697,22.4890178038],[114.2246845884,22.4902599714],[114.2268630403,22.4909197395],[114.2292494036,22.4926015606],[114.2304291506,22.4940654336],[114.2313600076,22.4965672825],[114.2324540932,22.4983466456],[114.2336463825,22.4977673454],[114.2345836548,22.497824572],[114.2355395869,22.4983441605],[114.2352129459,22.4990700698],[114.2365450692,22.5000786186],[114.2376879158,22.5001824921],[114.2383277502,22.500722113],[114.2384730377,22.5029917922],[114.2412840807,22.5039116833],[114.2416490546,22.5046505565],[114.2425120762,22.5045848902],[114.2421843744,22.5022429568],[114.244945706,22.5008212881],[114.247513138,22.4977957424],[114.2475471377,22.4968682069],[114.248790055,22.4948111292],[114.2504963135,22.4942300652],[114.2516853978,22.4931556137],[114.2534788081,22.4932876884],[114.2542321332,22.4928363062],[114.2558533488,22.4927300535],[114.2601737953,22.4934853108],[114.2610479082,22.4928954517],[114.2624278885,22.4928202149],[114.2633160676,22.4931820944],[114.2638032492,22.4929905866],[114.2659915973,22.494438778],[114.2659887985,22.4958192275],[114.26757806,22.4952855664],[114.2694411487,22.496039393],[114.2743610256,22.4959848279],[114.2805543475,22.4982538641],[114.2826433936,22.4969641769],[114.2848802717,22.4968616427],[114.2870672466,22.4962361167],[114.2886475825,22.4953694294],[114.2902707954,22.493979304],[114.2920354157,22.4934043518],[114.2936397308,22.4919937069],[114.296024494,22.4921163546],[114.2978829396,22.4908238407],[114.3003083302,22.4905904979],[114.3011090788,22.4899557866],[114.3022252848,22.4900642441],[114.3038557984,22.4909693105],[114.3051011775,22.4910689778],[114.3087415107,22.4934433068],[114.3102418756,22.4938343969],[114.3115973449,22.4952114861],[114.3124697672,22.495563517],[114.3138558917,22.4955824822],[114.3153043496,22.4963930753],[114.3161247995,22.4978650061],[114.3160302832,22.4987922547],[114.3180890445,22.5001057372],[114.320945935,22.5010710647],[114.3220219588,22.5021724271],[114.3239676949,22.5031775573],[114.3247015786,22.5033271778],[114.3265253617,22.5029705541],[114.3298547169,22.5050013548],[114.3328004783,22.5079465633],[114.3347895618,22.5090263909],[114.3358521345,22.5100633039],[114.336189552,22.5681287049],[114.332962494,22.5683300756],[114.3090805297,22.5666718604],[114.2760209017,22.5655036552],[114.2486647591,22.555720306],[114.2370540257,22.5507222691],[114.2336289732,22.543670821],[114.2263489529,22.543669108],[114.2253954045,22.5453142573],[114.226620934,22.5470595196],[114.226906018,22.5480072464],[114.2260449474,22.5485171933],[114.2242530341,22.5508809704],[114.2232750051,22.550917377],[114.2213366776,22.5517144003],[114.2204758883,22.5535974606],[114.2198089784,22.5537195496],[114.2190782345,22.5549397409],[114.2178369996,22.5559920955],[114.216933709,22.5557286376],[114.2167536892,22.5551895717],[114.2157532911,22.5553144354],[114.2152894453,22.5549975823],[114.2134859433,22.5548032462],[114.2127303642,22.5550419076],[114.211295584,22.5564857648],[114.2106023663,22.555904178],[114.2084938737,22.556933974],[114.2015494924,22.5560887599],[114.2006581749,22.5575463353],[114.199009172,22.5566303448],[114.1975290334,22.5565171391],[114.1961472802,22.5569727375],[114.1959065937,22.5557279533],[114.1946649846,22.5553669366],[114.1932390112,22.5554547186],[114.1919356329,22.5559638769],[114.1905191286,22.5543494074],[114.1891063882,22.5542482371],[114.1882082053,22.5554803383],[114.1877736342,22.5556145501],[114.1873440411,22.5555058626],[114.1871353693,22.5548522155],[114.1866717124,22.5546114417],[114.1816422368,22.5554300713],[114.1809927514,22.5541321416],[114.1776754408,22.5556689748],[114.1775781053,22.558531066],[114.1770881459,22.5597673916],[114.1752211883,22.5601066529],[114.1732625105,22.559551834],[114.1706416779,22.5596449291],[114.1692592695,22.5610057129],[114.1679220684,22.5612541226],[114.1669661506,22.5609883855],[114.1653554731,22.5593481184],[114.1639034006,22.5591482573],[114.1632077899,22.5593766129],[114.1623083322,22.5613272262],[114.1613179749,22.5619206435],[114.1602547495,22.5613693444],[114.1583159482,22.5589663435],[114.156678832,22.5550903211],[114.1558939281,22.5551413243],[114.1547643742,22.5543608134],[114.1524165635,22.5548447354],[114.1519837419,22.5546477256],[114.1515956369,22.5516543743],[114.1499232273,22.5505133712],[114.1495729538,22.5487547416],[114.1501970785,22.5478836678],[114.151641074,22.5480748082],[114.1519126576,22.5470639257],[114.1513789344,22.5463515568],[114.1503258823,22.5461147502],[114.1487608149,22.5442330227],[114.1482774162,22.5431902661],[114.1486076891,22.5422578013],[114.1483619431,22.5418492423],[114.1446406037,22.5411678375],[114.1439975054,22.5420371627],[114.1421471139,22.5419163547],[114.1412610258,22.5428156557],[114.1399561305,22.5428732282],[114.1379144532,22.5435765811],[114.1368293036,22.5433034992],[114.1342374495,22.5416308022],[114.1305117821,22.5419423668],[114.1282192765,22.53983976],[114.1274323064,22.5396250856],[114.1254306982,22.5397943283],[114.1228422871,22.5383891982],[114.1200812284,22.5350454655],[114.1172116102,22.5343846522],[114.1165400883,22.5339607431],[114.1154649565,22.5311476164],[114.1122044948,22.52959078],[114.1100228038,22.530303874],[114.1091520106,22.5311601115],[114.1078965538,22.5334508138],[114.1044687317,22.5350471027],[114.1027565227,22.5351141775],[114.0972781336,22.5341133113],[114.0957194683,22.5346071794],[114.0938191782,22.5363519388],[114.0927217041,22.5368910223],[114.091791963,22.5370119465],[114.0889956294,22.5364748093],[114.0852472347,22.5323793716],[114.0795595799,22.5306997124],[114.0780580712,22.5294593886],[114.0796771857,22.5273014815],[114.0837366495,22.5250494978],[114.0851226844,22.523807942],[114.0853191028,22.5225051085],[114.0841142175,22.5204847698],[114.0846546545,22.5202968061],[114.085431193,22.519183182],[114.0859785486,22.519166],[114.0879659091,22.520669536],[114.0885533797,22.5215932137],[114.0886469623,22.5224996875],[114.0894155939,22.5231696898],[114.0892891404,22.5223743354],[114.0897553284,22.5215314595],[114.0896659082,22.5209518335],[114.0916612293,22.5208024737],[114.0917503684,22.5190923957],[114.0911581429,22.5179494786],[114.0913506601,22.5165466412],[114.0905271462,22.5149272375],[114.0914403202,22.5145121377],[114.0918239381,22.5120363303],[114.0932689512,22.5103909217],[114.0923560686,22.5090362684],[114.0914102083,22.5085345927],[114.0896642423,22.5083577545],[114.0904381109,22.5070359617],[114.0893110985,22.5044826095],[114.0913678318,22.5048522528],[114.0912249513,22.5032003486],[114.0916984968,22.5012632933],[114.0910613186,22.4993995714],[114.0903919282,22.4987765142],[114.0903154408,22.4970943918],[114.0897030827,22.4965319472],[114.090570412,22.4959006117],[114.0913826307,22.4941624774],[114.0920740119,22.494009064],[114.0921131003,22.4935265997],[114.0927879521,22.4928661088],[114.0924584921,22.4925134172],[114.0931983504,22.4920145755],[114.092458502,22.491086687],[114.0926547424,22.4905769515],[114.0920978014,22.4871309756],[114.0922911694,22.4848957457],[114.0912480869,22.4843595749],[114.0892652273,22.4815794119],[114.0896447383,22.4792909421],[114.0893282474,22.4766872131],[114.0897737944,22.47312967],[114.0895544988,22.4714406468],[114.0901089632,22.4682552217],[114.0889336252,22.4660933255]]]}},{"type":"Feature","properties":{"district_code":"SK","district":"Sai Kung District","district_zh":"西貢區"},"geometry":{"type":"Polygon","coordinates":[[[114.4560595828,22.4662263001],[114.3637937402,22.4420197733],[114.3647875181,22.4388542137],[114.3639289513,22.4355830978],[114.3645284889,22.4339649162],[114.3660957701,22.4334527863],[114.3666892146,22.4324505334],[114.3667706826,22.4316927751],[114.3661933006,22.4303620779],[114.3663768136,22.4298492589],[114.3659319289,22.4291306414],[114.3664200796,22.428169655],[114.366437451,22.4265486977],[114.3678627099,22.425361421],[114.3680276435,22.4231709281],[114.3669955162,22.4223572841],[114.3666712961,22.4215515717],[114.3660224568,22.4209993624],[114.3663936174,22.420755015],[114.3656211009,22.4186380535],[114.3660653968,22.4179087132],[114.3647233177,22.415122389],[114.3621305814,22.4128927649],[114.3603082541,22.4102845445],[114.3595597622,22.4083987302],[114.3583790843,22.4079601144],[114.3582389576,22.4075030322],[114.3562247964,22.4075029592],[114.355534066,22.4066065384],[114.3555801672,22.4058003918],[114.3523071819,22.405801675],[114.3507271428,22.4063200155],[114.3515239975,22.4068156154],[114.3520449655,22.4083470973],[114.3488726738,22.4100999319],[114.3447312875,22.4110412701],[114.3436176028,22.4126073485],[114.3434420307,22.4135757127],[114.3428094225,22.4144537002],[114.3418410192,22.414901167],[114.3417120074,22.4153621412],[114.3385198537,22.4184480319],[114.3375930313,22.4188051721],[114.3363724479,22.417061435],[114.3348457957,22.4161015611],[114.3342856749,22.4151517508],[114.3329555228,22.4146873944],[114.3315397757,22.4146900112],[114.3247676726,22.417435392],[114.3222299258,22.4207002392],[114.322860228,22.4222220349],[114.3225664444,22.4229556457],[114.321676334,22.4236774019],[114.3199426393,22.4242944359],[114.3192487323,22.4252047142],[114.3179985126,22.4260758871],[114.3138049286,22.4263516572],[114.3080042622,22.4277080873],[114.3066684176,22.4261511685],[114.3061625733,22.4241042153],[114.306510316,22.4223260009],[114.3060901804,22.4213439133],[114.3068035284,22.4205239166],[114.3071069349,22.4195479033],[114.3056366063,22.4185051419],[114.3055798753,22.4178113852],[114.3061596537,22.4170492292],[114.3060327269,22.4165966965],[114.3029296303,22.41477995],[114.2995964293,22.4156710699],[114.2981314811,22.4151765476],[114.2952961239,22.4155566485],[114.2940909582,22.4160724361],[114.2924914857,22.4159882508],[114.2910290555,22.4166466281],[114.2906911776,22.416024125],[114.2882716991,22.4150652399],[114.2872251088,22.4137247156],[114.2867141551,22.4122074376],[114.2875675936,22.4096717101],[114.2872983018,22.4089576283],[114.2864403501,22.4075354776],[114.2850006493,22.4064393065],[114.2843552716,22.405181447],[114.2831204203,22.4040034868],[114.2818420041,22.4013783546],[114.2767338073,22.4028183611],[114.2747631858,22.4012622311],[114.2723259546,22.3979213034],[114.2580604593,22.3984593697],[114.2524473763,22.3936001769],[114.2523258176,22.3925658884],[114.2527817337,22.3902277123],[114.2534506694,22.3891328176],[114.2544397213,22.3886037631],[114.2544441748,22.3867416512],[114.2465400712,22.3869926683],[114.2474024722,22.3858345191],[114.2473750575,22.3845212501],[114.2462675046,22.3830040784],[114.2462882613,22.3824286177],[114.2456453708,22.3812464812],[114.2446057815,22.3803434975],[114.2444846286,22.3797230429],[114.2427526037,22.3791304705],[114.2402748956,22.3757869423],[114.2375425403,22.3734636134],[114.2352896366,22.3727461272],[114.2336791942,22.3713875786],[114.2318106337,22.3707614869],[114.2269949053,22.3707367361],[114.2267015363,22.3703668999],[114.2269166625,22.3690711412],[114.2257223634,22.3673375888],[114.2250961302,22.3649885629],[114.2236154669,22.3640218174],[114.2237885612,22.3614769238],[114.2247334863,22.3585769563],[114.2223374853,22.3584094173],[114.2224760177,22.3569176759],[114.2217149406,22.3565437168],[114.221816103,22.3551809423],[114.2212887139,22.3545776302],[114.2214512992,22.3539942388],[114.2211204527,22.3531800445],[114.2240346791,22.3345171969],[114.2249318376,22.3341421642],[114.228591392,22.3343555852],[114.2288903666,22.3338559089],[114.2284993186,22.3329258847],[114.2294252691,22.3317335506],[114.2292543511,22.3305376232],[114.2297061312,22.3300469985],[114.230019805,22.3301027771],[114.2302784746,22.3291228741],[114.230775244,22.3288783149],[114.2313682901,22.3278562068],[114.2326235131,22.3237088087],[114.2340369454,22.3221285322],[114.2364173931,22.3222056359],[114.2371289572,22.3213149297],[114.2377778815,22.3210776341],[114.2385922974,22.31966151],[114.2392020138,22.319390982],[114.2406666353,22.3196071101],[114.2412291845,22.3208137176],[114.2417489914,22.3207269069],[114.2428358348,22.3216514261],[114.2429879626,22.3214123967],[114.2430186576,22.3199602384],[114.2420964555,22.3171299823],[114.2415903331,22.3165127275],[114.2421381111,22.3153738221],[114.2443857945,22.3152161031],[114.2455757037,22.3135972119],[114.2447164936,22.3135049922],[114.2444972867,22.312926963],[114.2438816138,22.3125944141],[114.2440655883,22.3119399176],[114.2435381195,22.311394606],[114.2434993865,22.3107839366],[114.2426345311,22.3107833958],[114.2423095795,22.3103956811],[114.2418971968,22.3106201491],[114.2418686472,22.3092447007],[114.2407446948,22.3088706845],[114.2398600429,22.3059075296],[114.2402035805,22.305539525],[114.2399565313,22.305326788],[114.2401517224,22.3049917667],[114.2406169179,22.3050076048],[114.2407142552,22.3046797464],[114.241470353,22.3044159518],[114.2413772987,22.3039861862],[114.242232465,22.3032349847],[114.2421664192,22.3028710597],[114.2437248609,22.3022037851],[114.2437053022,22.3003819397],[114.2443868939,22.2997465344],[114.2447705383,22.2981248555],[114.2451485786,22.2979487623],[114.2454122388,22.2971317327],[114.24543652,22.2965370564],[114.2448217726,22.2959074749],[114.2454420837,22.2950128938],[114.24497681,22.2946283765],[114.2441336882,22.294797041],[114.2446543837,22.295105879],[114.2441526913,22.295004051],[114.2421550646,22.2942088365],[114.2419809621,22.2928710564],[114.2415551425,22.2928240508],[114.2415239034,22.2922725723],[114.241057875,22.2921257208],[114.2415203685,22.290179393],[114.2410703042,22.2892130692],[114.2423480509,22.2872935236],[114.2419233372,22.2870208431],[114.2419666425,22.2863452355],[114.2431703668,22.2865965039],[114.2442275798,22.2856347671],[114.2442337198,22.2822899639],[114.2615988694,22.2730066511],[114.2615824496,22.2457354295],[114.3090686836,22.1928283591],[114.3092437964,22.1484739342],[114.5024626585,22.1484582588],[114.5024689878,22.3651284798],[114.4560595828,22.4662263001]]]}},{"type":"Feature","properties":{"district_code":"SOU","district":"Southern District","district_zh":"南區"},"geometry":{"type":"Polygon","coordinates":[[[114.3090686836,22.1928283591],[114.2615824496,22.2457354295],[114.2501787411,22.2458011193],[114.2473818491,22.2533913959],[114.2441163634,22.2536320842],[114.2428965527,22.2545375745],[114.2427457059,22.2552664644],[114.2423188114,22.2555424785],[114.2387594004,22.2562332838],[114.2375610862,22.2571979126],[114.2369503743,22.2568993964],[114.2366581491,22.2572606133],[114.2363439999,22.25643613],[114.235784343,22.2568079005],[114.2352703789,22.2561531827],[114.2347310764,22.2561289839],[114.2344504033,22.2552376219],[114.2337331473,22.2546085277],[114.2320411977,22.2550059187],[114.2314459553,22.2557420105],[114.2307575559,22.2561342976],[114.2304929813,22.2557973428],[114.2300373738,22.2564080105],[114.2282542908,22.2571962479],[114.221361764,22.2566979935],[114.2186067031,22.2577472573],[114.2182058785,22.2581819062],[114.2171373021,22.2574110105],[114.2146301016,22.2598574321],[114.2140157568,22.2597696785],[114.2121029107,22.2604278079],[114.2116756304,22.2601574138],[114.2118812581,22.259714488],[114.2113969292,22.2591097182],[114.2120882558,22.2583937995],[114.2112696987,22.2576778074],[114.2106082073,22.258001822],[114.2103789424,22.2573366258],[114.2106519663,22.2566059615],[114.2127246955,22.2558619861],[114.2116269174,22.2555657212],[114.211226598,22.254636551],[114.2109000056,22.2548723202],[114.2113574423,22.2557847361],[114.2100933817,22.257002279],[114.2094252367,22.2569129296],[114.2087485396,22.2576533615],[114.2076710278,22.2572924335],[114.2062930002,22.2575664357],[114.2057437846,22.2579800032],[114.2051572513,22.2592536013],[114.2044061728,22.2593888021],[114.2018007822,22.2588731664],[114.200408665,22.2592348717],[114.1987424075,22.2581766212],[114.1974696699,22.2578130238],[114.1964694077,22.2581216803],[114.1944158328,22.2570490729],[114.1931509175,22.2571108843],[114.192562749,22.2575020062],[114.1923581166,22.2571112329],[114.1914266978,22.2570145738],[114.1896495341,22.2572965527],[114.1889331561,22.2567773174],[114.1883520818,22.2556633459],[114.1882297281,22.2544960688],[114.1871135673,22.2540368616],[114.1855786155,22.2543982234],[114.1843965463,22.2552668702],[114.1833631913,22.2551618885],[114.1829992613,22.25568914],[114.1803228663,22.255951425],[114.1785991679,22.2569157744],[114.1778794465,22.2550808128],[114.1767980851,22.2542482791],[114.1761079813,22.2541118061],[114.1729502923,22.2558272719],[114.1721626912,22.2554647242],[114.1711501243,22.2556081892],[114.1696400354,22.2567757583],[114.1676802105,22.2574516501],[114.1675912083,22.2571383714],[114.1652291521,22.2572568197],[114.1658809734,22.25657719],[114.1656996744,22.2562669835],[114.1645823393,22.2566090208],[114.1633404089,22.2564553109],[114.1631563161,22.2577009762],[114.1633839858,22.2588222963],[114.1626818101,22.2584276329],[114.1617790509,22.2589796504],[114.1583130057,22.2578751767],[114.1551579853,22.2593326695],[114.1552474704,22.258096131],[114.1542387417,22.2568283688],[114.1541719996,22.2561925105],[114.1538359793,22.2559271424],[114.1535271343,22.2562486623],[114.1517493802,22.2541362787],[114.150819457,22.2540785169],[114.1494727526,22.2533603759],[114.1489703254,22.253560961],[114.1480038554,22.2523501774],[114.1468293595,22.2520919587],[114.145990531,22.2528171991],[114.1452932725,22.2547301126],[114.1460653931,22.2547871357],[114.1461978657,22.256042694],[114.1468426449,22.2563091195],[114.1464905117,22.2573157202],[114.1447438033,22.2591810651],[114.1441332505,22.2590908897],[114.1431682929,22.2598481122],[114.1433350754,22.2605503345],[114.1430347571,22.2618263404],[114.1363544832,22.2720683442],[114.1292664664,22.275603753],[114.1281593862,22.2746889823],[114.1261830668,22.2742530108],[114.1253286433,22.2734324889],[114.1237589916,22.2727432164],[114.1228520857,22.2728702316],[114.122002506,22.2724639654],[114.1212518473,22.2725811899],[114.1203307545,22.273337044],[114.1192486879,22.2735324754],[114.1185324369,22.274235481],[114.1162832709,22.2730354612],[114.1101052047,22.2730292477],[114.1102412856,22.2611978817],[114.2000122981,22.1926441003],[114.3090686836,22.1928283591]]]}},{"type":"Feature","properties":{"district_code":"SSP","district":"Sham Shui Po District","district_zh":"深水埗區"},"geometry":{"type":"Polygon","coordinates":[[[114.131765056,22.3137530271],[114.1495249819,22.3137963721],[114.1495262565,22.3226126893],[114.1526954828,22.3226131921],[114.1549730772,22.3250563346],[114.1576745642,22.3218320967],[114.1586062739,22.3220701421],[114.1590124438,22.3227858796],[114.1590049963,22.3236484717],[114.1580791117,22.3244798948],[114.1583671103,22.3247564626],[114.1616519951,22.3249581946],[114.1619231979,22.3246154728],[114.1618915384,22.3252292338],[114.1605871118,22.3262096856],[114.1744743407,22.3266480774],[114.1761247257,22.3298092763],[114.1768475444,22.3333877629],[114.1762196893,22.3357916473],[114.1739585454,22.340551232],[114.1734879441,22.3403265243],[114.1730849059,22.3405399169],[114.1737956429,22.3415427044],[114.1731280201,22.3429808538],[114.1740074842,22.344227749],[114.1727251108,22.346468214],[114.1714773374,22.3465995],[114.1704215268,22.3460518573],[114.1696515446,22.3461898571],[114.1682487962,22.3458257668],[114.1670145197,22.3463516368],[114.1662741416,22.34571303],[114.1656194511,22.3465274075],[114.1655083919,22.3472657477],[114.164142469,22.3480432682],[114.1637322345,22.3486221036],[114.1612826331,22.3475155708],[114.1609419349,22.346992325],[114.160569214,22.3473818213],[114.1601142801,22.3473178657],[114.1595142167,22.3460496135],[114.1586814418,22.3454491704],[114.1571920476,22.3464801427],[114.1563196861,22.3462498184],[114.1560368692,22.3466341051],[114.154935537,22.3468551275],[114.1525380712,22.346188619],[114.1512580037,22.3472200736],[114.1511559935,22.3456814751],[114.1507482575,22.3449990605],[114.1479633181,22.3450586324],[114.1468424007,22.34416564],[114.146953138,22.3415150173],[114.1489230488,22.340602062],[114.1467832621,22.3399955022],[114.1453678072,22.3399980601],[114.1439478378,22.3411203863],[114.1433204583,22.3412636181],[114.1416504714,22.3400226896],[114.140880596,22.3398769026],[114.1382749004,22.341256319],[114.1381800085,22.3420354628],[114.1359663248,22.3413933519],[114.135838687,22.3403436064],[114.135201846,22.339642446],[114.1341091375,22.3397016279],[114.1329930774,22.3387819545],[114.1316733725,22.3393134204],[114.1324538968,22.337548042],[114.1339869145,22.3357218947],[114.1364432355,22.3344119633],[114.1389069697,22.3335898008],[114.1387555774,22.3328845404],[114.1417790464,22.3315535011],[114.142145546,22.3309658969],[114.1418804565,22.3301383588],[114.1404279741,22.3289391481],[114.14056708,22.3283749936],[114.1400490779,22.3285982032],[114.1379815012,22.3270990955],[114.1380195059,22.3266994742],[114.1362512991,22.325417872],[114.135108589,22.323612178],[114.1324939333,22.3228239806],[114.1304227001,22.3213776669],[114.1306598125,22.319866709],[114.1312807511,22.3187682679],[114.1319618635,22.318284689],[114.131765056,22.3137530271]]]}},{"type":"Feature","properties":{"district_code":"ST","district":"Sha Tin District","district_zh":"沙田區"},"geometry":{"type":"Polygon","coordinates":[[[114.1420605329,22.3496045597],[114.1422964036,22.3492351519],[114.1435560377,22.3491228225],[114.1443189159,22.3486950372],[114.1449347696,22.3489173205],[114.1447338657,22.3479701917],[114.1453877148,22.3469764614],[114.1462623919,22.346409672],[114.1468424007,22.34416564],[114.1479633181,22.3450586324],[114.1507482575,22.3449990605],[114.1511559935,22.3456814751],[114.1512580037,22.3472200736],[114.1525380712,22.346188619],[114.154935537,22.3468551275],[114.1560368692,22.3466341051],[114.1563196861,22.3462498184],[114.1571920476,22.3464801427],[114.1586814418,22.3454491704],[114.1595142167,22.3460496135],[114.1601142801,22.3473178657],[114.160569214,22.3473818213],[114.1609419349,22.346992325],[114.1612826331,22.3475155708],[114.1635600644,22.3486108285],[114.1655083919,22.3472657477],[114.166145656,22.3457528915],[114.1670145197,22.3463516368],[114.1682487962,22.3458257668],[114.1693185037,22.3459081155],[114.1714773374,22.3465995],[114.1725824179,22.3463773267],[114.1733300707,22.3470018984],[114.1728866659,22.347946449],[114.1734731582,22.3484944458],[114.1742825697,22.34802861],[114.1756409255,22.349170179],[114.1768859609,22.3493265114],[114.1771834528,22.3488054386],[114.1778982843,22.3490695975],[114.1786621946,22.3487498004],[114.1789972229,22.3490875934],[114.1803299707,22.3487469103],[114.1808543816,22.3492272066],[114.1812600486,22.3491457945],[114.1823933965,22.3499718301],[114.1828633984,22.34984851],[114.1833619737,22.3502141562],[114.1842142435,22.3501308217],[114.184891879,22.3496365016],[114.1849976548,22.3502479737],[114.1854079205,22.3504263241],[114.1876823595,22.3499517943],[114.188718736,22.3502929864],[114.1912319979,22.3498015922],[114.1915323907,22.3505036642],[114.1913997052,22.3511122005],[114.1917570324,22.3515572932],[114.1914599847,22.3519643185],[114.1913018921,22.3517388487],[114.1909291669,22.3519511268],[114.1908573235,22.3522168843],[114.1912498162,22.3522000169],[114.1908943989,22.353180568],[114.1926665082,22.3526955538],[114.1930831295,22.3539554558],[114.1951896621,22.3530877826],[114.1964176235,22.3529297756],[114.196766699,22.3525505309],[114.1971990846,22.3530776178],[114.1973803739,22.3542457515],[114.1980888711,22.3539192958],[114.1981792643,22.3544205971],[114.19899706,22.3552154018],[114.1994513286,22.3549784134],[114.1988533844,22.3555841299],[114.1996223793,22.3553829673],[114.2001435884,22.3546294649],[114.2011826269,22.3544402663],[114.2022156274,22.3546986977],[114.202629643,22.3543842606],[114.2036563459,22.3543431041],[114.204792207,22.354971881],[114.2067819264,22.3546352455],[114.209104725,22.3559171018],[114.2109714836,22.3551971465],[114.2141694614,22.3558033752],[114.2138062322,22.3570329862],[114.2145808237,22.3568990289],[114.2144217224,22.357306696],[114.216489294,22.3572069661],[114.2176324111,22.3581044814],[114.2247334863,22.3585769563],[114.2237885612,22.3614769238],[114.2236154669,22.3640218174],[114.2250961302,22.3649885629],[114.2257223634,22.3673375888],[114.2269166625,22.3690711412],[114.2268799021,22.3706449492],[114.2296321953,22.370941369],[114.2318106337,22.3707614869],[114.2336791942,22.3713875786],[114.2352896366,22.3727461272],[114.2374624488,22.3734054145],[114.239750709,22.3752485662],[114.2415338894,22.3771993782],[114.2427526037,22.3791304705],[114.2444846286,22.3797230429],[114.2447088093,22.380489216],[114.2456453708,22.3812464812],[114.2462882613,22.3824286177],[114.2462675046,22.3830040784],[114.2474711735,22.384870924],[114.2474024722,22.3858345191],[114.2465400712,22.3869926683],[114.2544441748,22.3867416512],[114.2544397213,22.3886037631],[114.2534506694,22.3891328176],[114.2527817337,22.3902277123],[114.252207286,22.3953970165],[114.2528552389,22.3971122199],[114.2527461225,22.3991162298],[114.2543849146,22.4013008238],[114.2530272467,22.4031003895],[114.2535639512,22.4038493688],[114.2535109809,22.4047484971],[114.252363397,22.4052713791],[114.2517921623,22.4059788681],[114.2516640977,22.4080962617],[114.2520694578,22.409081011],[114.2517861835,22.4104045066],[114.2509414508,22.4116899616],[114.248479066,22.4141901685],[114.2490112156,22.4150732936],[114.2483868369,22.4167904827],[114.2482549105,22.4194906546],[114.2494287426,22.4224214061],[114.248633861,22.4243491264],[114.2488538914,22.4253400776],[114.2493414922,22.4257747309],[114.2478976079,22.4278627025],[114.2470357727,22.4277734791],[114.2475223154,22.4289710592],[114.2488051869,22.4292934222],[114.2480033978,22.4299021149],[114.2494873985,22.4314159537],[114.2491157312,22.4319404744],[114.249727991,22.432500088],[114.2496079266,22.4389612468],[114.2272587656,22.4389922221],[114.2147075745,22.4313614525],[114.207718428,22.4267158864],[114.2066243905,22.4254574423],[114.2052084663,22.4252023243],[114.205044212,22.426056302],[114.2047275735,22.426094014],[114.2032900675,22.4243231988],[114.2039803438,22.4225974503],[114.2033627987,22.4224741333],[114.203544342,22.4230598293],[114.2031639409,22.4233955455],[114.2022025469,22.422898716],[114.2024861203,22.423364066],[114.2023299629,22.4253936272],[114.2005311507,22.4243486234],[114.2000528252,22.4225573349],[114.2001263923,22.4216834448],[114.1992032656,22.42163938],[114.1986755566,22.4186053005],[114.1852429248,22.4183469132],[114.1851261804,22.4156282553],[114.173422669,22.4157201455],[114.1734084136,22.412836683],[114.1691947703,22.4129277556],[114.167838374,22.41207863],[114.1652756243,22.4113565876],[114.1656810355,22.4101584322],[114.1652115391,22.4096434172],[114.165277814,22.4089546029],[114.1664893526,22.4073423171],[114.1666620865,22.406209389],[114.1677212769,22.4049995731],[114.1670861549,22.4039215833],[114.1673462418,22.4031449938],[114.167187659,22.402571078],[114.1676917578,22.4025477815],[114.1672755752,22.4019217901],[114.1678920337,22.4010200935],[114.1672556468,22.4003621938],[114.1669615279,22.3994519554],[114.1661219963,22.3990733342],[114.165959584,22.3986652077],[114.1676936838,22.3974506305],[114.1676347552,22.3956786789],[114.1681433008,22.3948007337],[114.1672864764,22.3936055424],[114.1654725319,22.3928436472],[114.1651592807,22.3922817283],[114.1629032188,22.3910913189],[114.1623393676,22.3895482162],[114.1606009681,22.3868360511],[114.1570099762,22.3846226135],[114.1571499541,22.3836477677],[114.1569098131,22.383118658],[114.1542942745,22.381602749],[114.1518621885,22.3814473017],[114.1490095056,22.3802802007],[114.1498221248,22.3792585885],[114.1495150462,22.3788416246],[114.1498714004,22.3779651542],[114.1495391744,22.3775541553],[114.1484855644,22.3781183189],[114.1485003507,22.3764499132],[114.146408076,22.3758278084],[114.145028568,22.3742752851],[114.1449980249,22.3735754399],[114.1455892939,22.3729860148],[114.1454925557,22.3722083316],[114.1460482117,22.3720606355],[114.1468081376,22.3709152819],[114.1471344204,22.3708526341],[114.1461663702,22.3697011323],[114.1449797677,22.3692352525],[114.1453148732,22.3684827401],[114.1447385132,22.3681116343],[114.1454030259,22.3673519983],[114.1444911051,22.3672056684],[114.1446251462,22.3665108943],[114.1461276055,22.364098713],[114.1453362742,22.3631228829],[114.1455561626,22.3620401361],[114.1446191051,22.3619184373],[114.143244912,22.3606371389],[114.1429623312,22.3598169618],[114.1421898041,22.3596232375],[114.1415512601,22.3587339067],[114.1413094243,22.3556789538],[114.1421483953,22.3511950134],[114.1420605329,22.3496045597]]]}},{"type":"Feature","properties":{"district_code":"TM","district":"Tuen Mun District","district_zh":"屯門區"},"geometry":{"type":"Polygon","coordinates":[[[114.0658185576,22.3977042742],[114.0573737918,22.3978308867],[114.0574454682,22.4048735921],[114.0597259435,22.4048735716],[114.0597774499,22.4086020698],[114.0516246991,22.4086168383],[114.0516095021,22.4045830278],[114.012172717,22.4045747598],[114.012166265,22.414690005],[114.0069414158,22.4147737722],[114.0067690756,22.4219138095],[114.0011949091,22.4219407978],[113.9988445341,22.4226513238],[113.9973466557,22.4223661647],[113.9956104199,22.425055543],[113.9937569698,22.4257041507],[113.9935851034,22.4272798582],[113.9945176144,22.4277530962],[113.9946569808,22.4290052436],[113.9952473658,22.4294038889],[113.9956556593,22.430231346],[113.9964572474,22.4327197042],[113.9932514239,22.4303189355],[113.9927847105,22.4320080703],[113.992006838,22.4319902869],[113.9898841444,22.4299001243],[113.9892340314,22.4298361575],[113.9889164193,22.4303606823],[113.9880970821,22.4301757318],[113.9881839989,22.4296514983],[113.9877141695,22.4296035399],[113.9854692768,22.429928249],[113.9851056976,22.4303166945],[113.984411345,22.4301922611],[113.9842186129,22.4308360187],[113.9823613238,22.4305143414],[113.9819067219,22.4308648515],[113.9810519054,22.4308751055],[113.9809840449,22.4303495604],[113.9704141161,22.4305486123],[113.9703631515,22.4333959581],[113.9502173611,22.433350884],[113.9481971608,22.4306989636],[113.9484175035,22.4302368006],[113.9479716524,22.4298675387],[113.9480615264,22.4288633831],[113.9471955033,22.4284830851],[113.9461068362,22.4268373649],[113.9458167151,22.4260697878],[113.9459859354,22.4249507088],[113.9451012557,22.4243352749],[113.9438920946,22.4242917602],[113.9439454629,22.4236079098],[113.9444466244,22.4229702618],[113.9427176838,22.4231616207],[113.9423255017,22.4223842286],[113.9417281904,22.4222788874],[113.940886061,22.4215422942],[113.9408447518,22.4206282554],[113.940048191,22.4203496572],[113.9399062591,22.4195177911],[113.9389319659,22.4196415221],[113.9393741348,22.4223887402],[113.9388649142,22.4230410079],[113.9379165362,22.4234724995],[113.8742174606,22.4316426193],[113.8691013823,22.4288098611],[113.8691074385,22.3333311189],[113.8658643449,22.3243459666],[113.9945811232,22.3246351133],[114.0290366484,22.3535738815],[114.028561699,22.3591235306],[114.0315535174,22.3620475731],[114.0340032567,22.3626667906],[114.0349388879,22.3641044151],[114.0345285863,22.3651529954],[114.0350062652,22.3660348659],[114.040184798,22.3679574844],[114.0402361704,22.3698182124],[114.0373861824,22.3693751108],[114.0355419339,22.3699570545],[114.0346007686,22.3706636809],[114.0339704414,22.3747418751],[114.0304870809,22.3747665764],[114.0320440611,22.377434777],[114.0323207752,22.3786389988],[114.0336295755,22.3783236792],[114.0335547445,22.3775893243],[114.036018336,22.3778543289],[114.0366445303,22.3786720073],[114.0362354323,22.379767938],[114.0354211763,22.380626463],[114.0361838697,22.3805908613],[114.0367295341,22.3801734029],[114.0388636769,22.3811919997],[114.0403776603,22.3811089026],[114.0410258964,22.3804575357],[114.0424978676,22.3803407539],[114.0431665535,22.380661078],[114.0451262864,22.3795135167],[114.0464999929,22.37968331],[114.0475681157,22.3806302031],[114.0459451086,22.3844264251],[114.0482793483,22.3863162413],[114.0499759213,22.3853659913],[114.0519342809,22.385507488],[114.0518600889,22.3850005936],[114.053236806,22.3841082181],[114.0546641489,22.3840457908],[114.0555794992,22.3849125322],[114.0585267112,22.3852799081],[114.0600576689,22.3848757765],[114.0646681402,22.384877865],[114.064989697,22.386002991],[114.064605552,22.389748696],[114.0661962066,22.3906432428],[114.0658234392,22.3915550681],[114.0658185576,22.3977042742]]]}},{"type":"Feature","properties":{"district_code":"TP","district":"Tai Po District","district_zh":"大埔區"},"geometry":{"type":"Polygon","coordinates":[[[114.111939778,22.4435248282],[114.1128573207,22.4419555301],[114.112502434,22.44112894],[114.1136784837,22.4395113363],[114.1151364641,22.436391398],[114.1168985106,22.4348092294],[114.1166222947,22.4319025274],[114.11751291,22.4305115962],[114.117956524,22.4289449985],[114.1184522954,22.4283855242],[114.1194144002,22.4283863576],[114.1201547625,22.4277708404],[114.1210192527,22.4276005287],[114.1214453185,22.4269544278],[114.121354235,22.4257829456],[114.1219846038,22.4246406254],[114.1229633174,22.4232932376],[114.1243714507,22.422736629],[114.1260049707,22.4200296233],[114.1260554834,22.4185723191],[114.1255729654,22.4159348684],[114.1258109808,22.4162092266],[114.1278513025,22.41640684],[114.1278681704,22.4167757494],[114.1281872499,22.4168670266],[114.1307537918,22.4164755669],[114.1324324246,22.4168822732],[114.134016198,22.4166072438],[114.1355184401,22.4171423118],[114.1367926512,22.41705417],[114.1375223405,22.4175358365],[114.1384847062,22.4171648788],[114.1394535418,22.4173140276],[114.1408410716,22.4168076512],[114.1418751881,22.4160195981],[114.1431596479,22.4157841662],[114.1461653997,22.4168585887],[114.1469431394,22.415892021],[114.1467770877,22.4150533741],[114.1472811484,22.4138320845],[114.147048286,22.4128980363],[114.1473274329,22.4118339797],[114.1493035365,22.4125033885],[114.1526207741,22.4124008997],[114.1551442931,22.4129001024],[114.1582352935,22.4118547479],[114.1588965299,22.4123978171],[114.1587453817,22.4130254554],[114.1600928401,22.4120510843],[114.1599735608,22.412706839],[114.1604720373,22.4130776912],[114.1607847553,22.4128583359],[114.1614785284,22.4130942345],[114.1734084136,22.412836683],[114.173422669,22.4157201455],[114.1851261804,22.4156282553],[114.1852429248,22.4183469132],[114.1986755566,22.4186053005],[114.1992032656,22.42163938],[114.2001263923,22.4216834448],[114.2000528252,22.4225573349],[114.2005311507,22.4243486234],[114.2023299629,22.4253936272],[114.2024861203,22.423364066],[114.2022025469,22.422898716],[114.2031639409,22.4233955455],[114.203544342,22.4230598293],[114.2033627987,22.4224741333],[114.2039803438,22.4225974503],[114.2032900675,22.4243231988],[114.2047275735,22.426094014],[114.205044212,22.426056302],[114.2052084663,22.4252023243],[114.2066243905,22.4254574423],[114.207718428,22.4267158864],[114.2147075745,22.4313614525],[114.2272587656,22.4389922221],[114.2496079266,22.4389612468],[114.249727991,22.432500088],[114.2491157312,22.4319404744],[114.2494873985,22.4314159537],[114.2480033978,22.4299021149],[114.2488051869,22.4292934222],[114.2475223154,22.4289710592],[114.2470357727,22.4277734791],[114.2478976079,22.4278627025],[114.2493414922,22.4257747309],[114.2488538914,22.4253400776],[114.248633861,22.4243491264],[114.2494287426,22.4224214061],[114.2482549105,22.4194906546],[114.2483868369,22.4167904827],[114.2490112156,22.4150732936],[114.248479066,22.4141901685],[114.2509414508,22.4116899616],[114.2517861835,22.4104045066],[114.2520694578,22.409081011],[114.2516640977,22.4080962617],[114.2517921623,22.4059788681],[114.252363397,22.4052713791],[114.2535109809,22.4047484971],[114.2535639512,22.4038493688],[114.2530272467,22.4031003895],[114.2543849146,22.4013008238],[114.2527461225,22.3991162298],[114.2528552389,22.3971122199],[114.252207286,22.3953970165],[114.2524473763,22.3936001769],[114.2580604593,22.3984593697],[114.2723259546,22.3979213034],[114.2747631858,22.4012622311],[114.2767338073,22.4028183611],[114.2818420041,22.4013783546],[114.2831204203,22.4040034868],[114.2843552716,22.405181447],[114.2850006493,22.4064393065],[114.2864403501,22.4075354776],[114.2872983018,22.4089576283],[114.2875675936,22.4096717101],[114.2867141551,22.4122074376],[114.2872251088,22.4137247156],[114.2882716991,22.4150652399],[114.2906911776,22.416024125],[114.2910290555,22.4166466281],[114.2924914857,22.4159882508],[114.2940909582,22.4160724361],[114.2952961239,22.4155566485],[114.2981314811,22.4151765476],[114.2995964293,22.4156710699],[114.3029296303,22.41477995],[114.3060327269,22.4165966965],[114.3061596537,22.4170492292],[114.3055798753,22.4178113852],[114.3056366063,22.4185051419],[114.3071069349,22.4195479033],[114.3068035284,22.4205239166],[114.3060901804,22.4213439133],[114.306510316,22.4223260009],[114.3061625733,22.4241042153],[114.3066684176,22.4261511685],[114.3080042622,22.4277080873],[114.3138049286,22.4263516572],[114.3179985126,22.4260758871],[114.3192487323,22.4252047142],[114.3199426393,22.4242944359],[114.321676334,22.4236774019],[114.3225664444,22.4229556457],[114.322860228,22.4222220349],[114.3222299258,22.4207002392],[114.3247676726,22.417435392],[114.3315397757,22.4146900112],[114.3329555228,22.4146873944],[114.3342856749,22.4151517508],[114.3348457957,22.4161015611],[114.3363724479,22.417061435],[114.3375930313,22.4188051721],[114.3385198537,22.4184480319],[114.3417120074,22.4153621412],[114.3418410192,22.414901167],[114.3428094225,22.4144537002],[114.3434420307,22.4135757127],[114.3436176028,22.4126073485],[114.3447312875,22.4110412701],[114.3488726738,22.4100999319],[114.3520449655,22.4083470973],[114.3515239975,22.4068156154],[114.3507271428,22.4063200155],[114.3523071819,22.405801675],[114.3555801672,22.4058003918],[114.355534066,22.4066065384],[114.3562247964,22.4075029592],[114.3582389576,22.4075030322],[114.3583790843,22.4079601144],[114.3595597622,22.4083987302],[114.3603082541,22.4102845445],[114.3621305814,22.4128927649],[114.3647233177,22.415122389],[114.3660653968,22.4179087132],[114.3656211009,22.4186380535],[114.3663936174,22.420755015],[114.3660224568,22.4209993624],[114.3666712961,22.4215515717],[114.3669955162,22.4223572841],[114.3680276435,22.4231709281],[114.3678627099,22.425361421],[114.366437451,22.4265486977],[114.3664200796,22.428169655],[114.3659319289,22.4291306414],[114.3663768136,22.4298492589],[114.3661933006,22.4303620779],[114.3667706826,22.4316927751],[114.3666892146,22.4324505334],[114.3660957701,22.4334527863],[114.3645284889,22.4339649162],[114.3639289513,22.4355830978],[114.3647875181,22.4388542137],[114.3637937402,22.4420197733],[114.4560373086,22.4662204635],[114.4548872288,22.4687237725],[114.4551369434,22.5449752881],[114.4339656904,22.5619964577],[114.336189552,22.5681287049],[114.3358521345,22.5100633039],[114.3347895618,22.5090263909],[114.3328004783,22.5079465633],[114.3298547169,22.5050013548],[114.3265253617,22.5029705541],[114.3247015786,22.5033271778],[114.3239676949,22.5031775573],[114.3220219588,22.5021724271],[114.320945935,22.5010710647],[114.3188287946,22.5004548063],[114.3160302832,22.4987922547],[114.3161247995,22.4978650061],[114.3156286215,22.4966689092],[114.3138558917,22.4955824822],[114.3124697672,22.495563517],[114.3115973449,22.4952114861],[114.3102418756,22.4938343969],[114.3087415107,22.4934433068],[114.3051011775,22.4910689778],[114.3038557984,22.4909693105],[114.3022252848,22.4900642441],[114.3011090788,22.4899557866],[114.3003083302,22.4905904979],[114.2978829396,22.4908238407],[114.296024494,22.4921163546],[114.2936397308,22.4919937069],[114.2920354157,22.4934043518],[114.2902707954,22.493979304],[114.2886475825,22.4953694294],[114.2870672466,22.4962361167],[114.2848802717,22.4968616427],[114.2826433936,22.4969641769],[114.2805543475,22.4982538641],[114.2743610256,22.4959848279],[114.2694411487,22.496039393],[114.26757806,22.4952855664],[114.2659887985,22.4958192275],[114.2659915973,22.494438778],[114.2638032492,22.4929905866],[114.2633160676,22.4931820944],[114.2624278885,22.4928202149],[114.2610479082,22.4928954517],[114.2601737953,22.4934853108],[114.2558533488,22.4927300535],[114.2542321332,22.4928363062],[114.2534788081,22.4932876884],[114.2516853978,22.4931556137],[114.2504963135,22.4942300652],[114.248790055,22.4948111292],[114.2475471377,22.4968682069],[114.247513138,22.4977957424],[114.244945706,22.5008212881],[114.2421843744,22.5022429568],[114.2425120762,22.5045848902],[114.2416490546,22.5046505565],[114.2412840807,22.5039116833],[114.2384730377,22.5029917922],[114.2383277502,22.500722113],[114.2376879158,22.5001824921],[114.2365450692,22.5000786186],[114.2352129459,22.4990700698],[114.2355395869,22.4983441605],[114.2345836548,22.497824572],[114.2336463825,22.4977673454],[114.2324540932,22.4983466456],[114.2313600076,22.4965672825],[114.2304291506,22.4940654336],[114.2292494036,22.4926015606],[114.2268630403,22.4909197395],[114.2246845884,22.4902599714],[114.224591697,22.4890178038],[114.2240300471,22.4884650015],[114.2241028691,22.4874872582],[114.2236341392,22.4869662232],[114.2231739536,22.4874379049],[114.2217629804,22.4878875047],[114.2205232613,22.4891986176],[114.219436601,22.489102247],[114.2176660758,22.4899698948],[114.2160000691,22.4901659067],[114.2150472593,22.4898984201],[114.2132630066,22.4903674108],[114.2115204173,22.4903889724],[114.2093320746,22.4902652513],[114.207451044,22.4895284767],[114.2024957665,22.4924711669],[114.2005982317,22.4929322159],[114.1975650473,22.4929742465],[114.1971354089,22.4932777678],[114.1957619006,22.4930797628],[114.1938283882,22.4949748442],[114.1915771948,22.4943446445],[114.1914903216,22.4948720106],[114.1908608706,22.4951055746],[114.1889064969,22.495115016],[114.1861143225,22.4956189075],[114.1833440191,22.4956235222],[114.179384516,22.4945225928],[114.1782477647,22.4934394554],[114.1775379368,22.493221421],[114.177066338,22.4923830218],[114.1748237716,22.4906755859],[114.1736273572,22.488098632],[114.1724329357,22.4871696819],[114.1717867531,22.4839692316],[114.1706695806,22.4846637126],[114.1696423978,22.4846582788],[114.1696075614,22.4850198368],[114.1701124411,22.4852519041],[114.168888989,22.4869603656],[114.1684479693,22.4864045126],[114.1663552847,22.4860913961],[114.1655892776,22.4856326538],[114.1640552436,22.4860279811],[114.1642365717,22.4869977348],[114.1638534048,22.4871272627],[114.163801126,22.4875213193],[114.1644337829,22.488948634],[114.1640703523,22.489758018],[114.159533834,22.48829439],[114.1514967398,22.4882443457],[114.151940842,22.4873020649],[114.1514916193,22.486959607],[114.1523265526,22.4863188472],[114.1518923144,22.4857717645],[114.15119117,22.4855318339],[114.1533167288,22.483989746],[114.1530164525,22.4823363148],[114.1533179676,22.4807986152],[114.1529350892,22.4801316799],[114.151521296,22.480125504],[114.151079462,22.4804183635],[114.1497951,22.479704326],[114.1489952045,22.4797192155],[114.1481323406,22.4765352462],[114.1457902566,22.4746810838],[114.1438928542,22.4747325789],[114.1439333773,22.4739744012],[114.1435828244,22.4735407435],[114.1421372944,22.473384917],[114.1416559668,22.4725891242],[114.1387061746,22.4715792226],[114.138497451,22.4713419529],[114.1387157846,22.471152122],[114.1362438189,22.4692486546],[114.1357425624,22.4684528388],[114.1340053867,22.4678056186],[114.1328105053,22.4678778653],[114.1311398987,22.4686471172],[114.1299809567,22.4682929103],[114.129305303,22.4674421276],[114.1280992661,22.4669924407],[114.1274907249,22.4646743252],[114.1268582692,22.4638314739],[114.1248161968,22.4635548403],[114.1249324067,22.4623365722],[114.1240698146,22.4614020227],[114.1243816423,22.4604256997],[114.1239317394,22.4600293424],[114.1238594859,22.4591539806],[114.1223000357,22.4578552093],[114.1217988669,22.4556443065],[114.1205767211,22.4549315639],[114.1185095636,22.4527904709],[114.1180763674,22.450932877],[114.1152664751,22.4485025412],[114.111939778,22.4435248282]]]}},{"type":"Feature","properties":{"district_code":"TW","district":"Tsuen Wan District","district_zh":"荃灣區"},"geometry":{"type":"Polygon","coordinates":[[[113.9946000433,22.3141891505],[114.0069661536,22.3139289301],[114.0078727777,22.3145268702],[114.0092330539,22.3144315372],[114.0098098956,22.3150113441],[114.0101135591,22.3147470247],[114.0100921304,22.3140185607],[114.0104645616,22.3138551466],[114.0726929411,22.3125300052],[114.0724254784,22.361972024],[114.0789861747,22.3648336905],[114.1100940526,22.3647402164],[114.1100815896,22.3600063379],[114.1135242635,22.3606929584],[114.1160186928,22.3624380737],[114.1199255735,22.3641073089],[114.1233890163,22.3703721249],[114.1298623584,22.3709454227],[114.1307827619,22.370716158],[114.1327799344,22.3695065228],[114.1339419525,22.3700056546],[114.134467442,22.3698024976],[114.1346801948,22.3709339619],[114.136355978,22.3725631008],[114.1364015909,22.3758682417],[114.1374857397,22.3793144501],[114.1371288239,22.3801053015],[114.1359946794,22.3804255126],[114.1360430163,22.380893631],[114.1350429923,22.3815335948],[114.13671532,22.3816839519],[114.1375633938,22.3821434705],[114.1385346664,22.3820071889],[114.1435150311,22.3845023138],[114.1444668654,22.384445082],[114.1445859588,22.3827838961],[114.1438508504,22.382434664],[114.1437963439,22.3816226191],[114.1428834487,22.3815542406],[114.1443962611,22.3807147845],[114.1441073654,22.3803714218],[114.1435635941,22.3803736228],[114.1438137069,22.3791900249],[114.144231972,22.3790560244],[114.1442246689,22.3783936789],[114.1454189677,22.3789083031],[114.146369948,22.3781351737],[114.1491717003,22.3803994224],[114.150070776,22.3805053211],[114.1518621885,22.3814473017],[114.1542942745,22.381602749],[114.1558440409,22.3827263005],[114.1567828051,22.3830240205],[114.1571499541,22.3836477677],[114.1570099762,22.3846226135],[114.1606009681,22.3868360511],[114.1623393676,22.3895482162],[114.1629032188,22.3910913189],[114.167617887,22.3939078399],[114.1681826805,22.3949442939],[114.1676347552,22.3956786789],[114.1677363608,22.3973712187],[114.1662145406,22.3982599174],[114.1664443588,22.3985603141],[114.165959584,22.3986652077],[114.1661219963,22.3990733342],[114.1669615279,22.3994519554],[114.1672556468,22.4003621938],[114.1678920337,22.4010200935],[114.1672755752,22.4019217901],[114.1676917578,22.4025477815],[114.167187659,22.402571078],[114.1673462418,22.4031449938],[114.1670861549,22.4039215833],[114.1677212769,22.4049995731],[114.1666620865,22.406209389],[114.1664893526,22.4073423171],[114.165277814,22.4089546029],[114.1652115391,22.4096434172],[114.1656810355,22.4101584322],[114.1656446302,22.4108109822],[114.1652166505,22.4112447588],[114.167838374,22.41207863],[114.1691947703,22.4129277556],[114.1614785284,22.4130942345],[114.1607847553,22.4128583359],[114.1604720373,22.4130776912],[114.1599735608,22.412706839],[114.1600928401,22.4120510843],[114.1587453817,22.4130254554],[114.1588965299,22.4123978171],[114.1582352935,22.4118547479],[114.1551442931,22.4129001024],[114.1526207741,22.4124008997],[114.1493035365,22.4125033885],[114.1473274329,22.4118339797],[114.147048286,22.4128980363],[114.1472811484,22.4138320845],[114.1467770877,22.4150533741],[114.1469431394,22.415892021],[114.1461653997,22.4168585887],[114.1434264065,22.4157814221],[114.141975744,22.4159781789],[114.1408410716,22.4168076512],[114.1394535418,22.4173140276],[114.1384847062,22.4171648788],[114.1377529678,22.4175448507],[114.1367926512,22.41705417],[114.1355184401,22.4171423118],[114.134016198,22.4166072438],[114.1324324246,22.4168822732],[114.1307537918,22.4164755669],[114.1281872499,22.4168670266],[114.1278681704,22.4167757494],[114.1278513025,22.41640684],[114.1257628447,22.4161828605],[114.1244026016,22.4143253146],[114.123536467,22.4140676534],[114.1244395147,22.4137154166],[114.1238108939,22.4134806898],[114.1235958381,22.4128993176],[114.1242867879,22.4130892743],[114.1246288059,22.412378469],[114.1240861703,22.4127985085],[114.1231692472,22.4120922572],[114.1233674902,22.4109920482],[114.1204784002,22.4109596134],[114.1174116347,22.4118178742],[114.116804479,22.4113575013],[114.1169688937,22.4104181837],[114.1157854797,22.4101793994],[114.1146846104,22.4085075624],[114.1129049381,22.4081680262],[114.1125017391,22.4068186746],[114.1109272869,22.4063181935],[114.1101274329,22.4056546027],[114.1090235932,22.4053737466],[114.1075789587,22.406168549],[114.1070255212,22.4055472478],[114.1070000716,22.4049337592],[114.1066201298,22.4048042148],[114.1052633275,22.4056269389],[114.10534043,22.4065772879],[114.1044436018,22.4074063033],[114.1007812508,22.407334563],[114.0976409558,22.4043663307],[114.0974387396,22.4037438047],[114.0968483987,22.4035212191],[114.0968938541,22.4030044986],[114.0961003645,22.4026685672],[114.0960112109,22.4021141766],[114.0949597402,22.4008458291],[114.0932844206,22.3997726185],[114.0922253816,22.3993655238],[114.0904128973,22.3994555384],[114.0894330064,22.4006045669],[114.0892149017,22.4013977869],[114.0879786736,22.4013579831],[114.086422857,22.4020068195],[114.0853070538,22.4017820638],[114.0845005307,22.4008088493],[114.0832490147,22.4004480929],[114.0826396068,22.3997801777],[114.0824282798,22.3987077462],[114.0812326018,22.3982158749],[114.0807718971,22.3974735297],[114.0793494938,22.3969558991],[114.0784249205,22.3972539596],[114.0782592627,22.3968980119],[114.0770772928,22.3964272677],[114.0754818299,22.3966602467],[114.0742423689,22.3963247858],[114.0733321175,22.3947932653],[114.0741830425,22.3936130336],[114.0739834704,22.393215935],[114.0736410488,22.3937020996],[114.0736361985,22.3933265812],[114.0723931315,22.3929627931],[114.0719258578,22.3925059085],[114.0715864335,22.3929637331],[114.0705871877,22.3923727107],[114.0693296296,22.3933851651],[114.0692276768,22.3926734125],[114.0681855476,22.3925851018],[114.066936866,22.3912366003],[114.0660479406,22.391832621],[114.0658306055,22.3917023876],[114.0661459149,22.3905438729],[114.0651543603,22.3902221027],[114.0645819624,22.3896544192],[114.0649871249,22.3861835993],[114.0646681402,22.384877865],[114.0600576689,22.3848757765],[114.0585267112,22.3852799081],[114.0555794992,22.3849125322],[114.0546641489,22.3840457908],[114.053236806,22.3841082181],[114.0518600889,22.3850005936],[114.0519342809,22.385507488],[114.0499759213,22.3853659913],[114.0483746146,22.3863315514],[114.0459451086,22.3844264251],[114.0475681157,22.3806302031],[114.0464999929,22.37968331],[114.0451262864,22.3795135167],[114.0431665535,22.380661078],[114.0423441575,22.3803287059],[114.0408183409,22.3804978993],[114.0402470436,22.3811333735],[114.0388636769,22.3811919997],[114.0367295341,22.3801734029],[114.0361838697,22.3805908613],[114.0354211763,22.380626463],[114.0362354323,22.379767938],[114.0366445303,22.3786720073],[114.0361629847,22.3779617372],[114.0337353986,22.3775513302],[114.0334246283,22.3777054316],[114.0336295755,22.3783236792],[114.0324103883,22.3786962961],[114.0320440611,22.377434777],[114.0304870809,22.3747665764],[114.0339704414,22.3747418751],[114.0346007686,22.3706636809],[114.0355419339,22.3699570545],[114.0373861824,22.3693751108],[114.0402361704,22.3698182124],[114.040184798,22.3679574844],[114.0350062652,22.3660348659],[114.0345285863,22.3651529954],[114.0349388879,22.3641044151],[114.0340032567,22.3626667906],[114.0315535174,22.3620475731],[114.028561699,22.3591235306],[114.0290366484,22.3535738815],[113.9945811232,22.3246351133],[113.9946000433,22.3141891505]]]}},{"type":"Feature","properties":{"district_code":"WC","district":"Wan Chai District","district_zh":"灣仔區"},"geometry":{"type":"Polygon","coordinates":[[[114.1674400125,22.2906586983],[114.1674362321,22.2824620913],[114.1677087586,22.2808725252],[114.1665521624,22.2795541455],[114.1682002544,22.2797023891],[114.1672250729,22.2785290737],[114.1671783439,22.2779429734],[114.1680703149,22.2774224888],[114.167082628,22.2766069837],[114.167100707,22.2761527344],[114.167405023,22.2761325237],[114.1671429581,22.2753849246],[114.1665566814,22.2756044597],[114.1663009754,22.2752741927],[114.1661698792,22.2730962455],[114.1654682485,22.2727849297],[114.1655691942,22.269167214],[114.1671904904,22.2683361823],[114.1666062248,22.2679896315],[114.1664780412,22.2673972939],[114.1657659631,22.2666705594],[114.1662488483,22.2657625775],[114.1660671341,22.2638645386],[114.1652302368,22.2631691657],[114.1651144866,22.2622877833],[114.1647264788,22.2621125601],[114.1648540114,22.2616613347],[114.1645123033,22.2615993317],[114.1646455504,22.2612607914],[114.1635394121,22.2603253993],[114.1631563161,22.2577009762],[114.1633404089,22.2564553109],[114.1645823393,22.2566090208],[114.1656996744,22.2562669835],[114.1658809734,22.25657719],[114.1652291521,22.2572568197],[114.1675912083,22.2571383714],[114.1676802105,22.2574516501],[114.1696400354,22.2567757583],[114.171270542,22.2555616042],[114.1721626912,22.2554647242],[114.1729502923,22.2558272719],[114.1739507155,22.2550636777],[114.1763856081,22.2541094862],[114.1778794465,22.2550808128],[114.1782664755,22.2565973655],[114.1786339872,22.2569195849],[114.1803228663,22.255951425],[114.1829992613,22.25568914],[114.1833631913,22.2551618885],[114.1843965463,22.2552668702],[114.1855786155,22.2543982234],[114.1871135673,22.2540368616],[114.1882297281,22.2544960688],[114.1883520818,22.2556633459],[114.1889331561,22.2567773174],[114.1896495341,22.2572965527],[114.1914266978,22.2570145738],[114.1923581166,22.2571112329],[114.192562749,22.2575020062],[114.1931509175,22.2571108843],[114.1943772876,22.2570446881],[114.1964694077,22.2581216803],[114.1977183567,22.2578963269],[114.1973736623,22.259146079],[114.1983717422,22.266350075],[114.2031393021,22.2675029211],[114.2071646131,22.2704512952],[114.2045810275,22.2752227556],[114.2025499436,22.277762398],[114.202200003,22.277663116],[114.2007265152,22.2743705056],[114.1977868833,22.2731625481],[114.1973289602,22.2739577187],[114.1953241949,22.2758357011],[114.1952740989,22.2762829223],[114.1960165749,22.2766615633],[114.1951816585,22.277770171],[114.19530362,22.2783119956],[114.1942830715,22.2790757574],[114.1948131247,22.2792066438],[114.1947137109,22.2795520767],[114.1940106471,22.2799666951],[114.1934421349,22.2808780268],[114.194811136,22.2826247401],[114.1952231721,22.2845493478],[114.1946773726,22.2847520381],[114.1946398324,22.285235181],[114.1956211783,22.2857475587],[114.1958317207,22.2864118455],[114.1954411777,22.2866421718],[114.1949031423,22.2860095286],[114.193981909,22.2860361515],[114.1934499265,22.2852274054],[114.1931409917,22.2831278145],[114.1923907805,22.2830612872],[114.1929289825,22.285345985],[114.1929085404,22.2869032019],[114.1924864262,22.2868829243],[114.1919455011,22.2874169116],[114.1914923772,22.2867001469],[114.1894914617,22.288199445],[114.1863271305,22.2938674082],[114.1743016294,22.2880486111],[114.1674400125,22.2906586983]]]}},{"type":"Feature","properties":{"district_code":"WTS","district":"Wong Tai Sin District","district_zh":"黃大仙區"},"geometry":{"type":"Polygon","coordinates":[[[114.1794524018,22.3490189815],[114.1814594974,22.3464212591],[114.1816978718,22.3441393004],[114.1826983619,22.3440692803],[114.1844529715,22.3430967235],[114.1831871874,22.339687178],[114.1842962426,22.33945798],[114.1861498387,22.3379335142],[114.1860736832,22.336135197],[114.1865281016,22.3361154206],[114.1867100161,22.3347794442],[114.1874515635,22.3347533621],[114.1871672898,22.3324704141],[114.1887822587,22.3323280714],[114.1898100031,22.3326553509],[114.1907304081,22.3334200472],[114.1917492033,22.3319007513],[114.1925144335,22.3313078575],[114.1916436513,22.3305231639],[114.1941826603,22.3304291113],[114.1955935372,22.3317609648],[114.1968819871,22.3322034173],[114.1982754656,22.3336728122],[114.2028929537,22.3353228707],[114.2046475123,22.3349602813],[114.2071768879,22.3329024993],[114.2083898969,22.3340480222],[114.211286305,22.3344047],[114.2121319107,22.3339388834],[114.2132721289,22.3325874308],[114.2141347501,22.3322948696],[114.2182840245,22.3330493415],[114.2181450781,22.333867448],[114.2215391716,22.3339094695],[114.2240346791,22.3345171969],[114.2211204527,22.3531800445],[114.2214512992,22.3539942388],[114.2212887139,22.3545776302],[114.221816103,22.3551809423],[114.2217149406,22.3565437168],[114.2224760177,22.3569176759],[114.2223374853,22.3584094173],[114.2176324111,22.3581044814],[114.216489294,22.3572069661],[114.2144217224,22.357306696],[114.2145808237,22.3568990289],[114.2138062322,22.3570329862],[114.2141694614,22.3558033752],[114.2109714836,22.3551971465],[114.209104725,22.3559171018],[114.2067819264,22.3546352455],[114.204792207,22.354971881],[114.2036563459,22.3543431041],[114.202629643,22.3543842606],[114.2022156274,22.3546986977],[114.2011826269,22.3544402663],[114.2001435884,22.3546294649],[114.1996223793,22.3553829673],[114.1988533844,22.3555841299],[114.1994513286,22.3549784134],[114.19899706,22.3552154018],[114.1981792643,22.3544205971],[114.1980888711,22.3539192958],[114.1973803739,22.3542457515],[114.1971990846,22.3530776178],[114.196766699,22.3525505309],[114.1964176235,22.3529297756],[114.1951896621,22.3530877826],[114.1930831295,22.3539554558],[114.1926665082,22.3526955538],[114.1908943989,22.353180568],[114.1912498162,22.3522000169],[114.1908573235,22.3522168843],[114.1909291669,22.3519511268],[114.1913018921,22.3517388487],[114.1914599847,22.3519643185],[114.1917570324,22.3515572932],[114.1913997052,22.3511122005],[114.1915323907,22.3505036642],[114.1912319979,22.3498015922],[114.188718736,22.3502929864],[114.1876823595,22.3499517943],[114.1854079205,22.3504263241],[114.1849976548,22.3502479737],[114.184891879,22.3496365016],[114.1842142435,22.3501308217],[114.1833619737,22.3502141562],[114.1828633984,22.34984851],[114.1823933965,22.3499718301],[114.1812600486,22.3491457945],[114.1808543816,22.3492272066],[114.1803299707,22.3487469103],[114.1794524018,22.3490189815]]]}},{"type":"Feature","properties":{"district_code":"YL","district":"Yuen Long District","district_zh":"元朗區"},"geometry":{"type":"Polygon","coordinates":[[[113.8742174606,22.4316426193],[113.9379165362,22.4234724995],[113.9388649142,22.4230410079],[113.9393741348,22.4223887402],[113.9389319659,22.4196415221],[113.9399062591,22.4195177911],[113.940048191,22.4203496572],[113.9408447518,22.4206282554],[113.940886061,22.4215422942],[113.9417281904,22.4222788874],[113.9423255017,22.4223842286],[113.9427176838,22.4231616207],[113.9444466244,22.4229702618],[113.9439454629,22.4236079098],[113.9438920946,22.4242917602],[113.9451012557,22.4243352749],[113.9459859354,22.4249507088],[113.9458167151,22.4260697878],[113.9461068362,22.4268373649],[113.9471955033,22.4284830851],[113.9480615264,22.4288633831],[113.9479716524,22.4298675387],[113.9484175035,22.4302368006],[113.9481971608,22.4306989636],[113.9502173611,22.433350884],[113.9703631515,22.4333959581],[113.9704141161,22.4305486123],[113.9809840449,22.4303495604],[113.9810519054,22.4308751055],[113.9819067219,22.4308648515],[113.9823613238,22.4305143414],[113.9842186129,22.4308360187],[113.984411345,22.4301922611],[113.9851056976,22.4303166945],[113.9854692768,22.429928249],[113.9877141695,22.4296035399],[113.9881839989,22.4296514983],[113.9880970821,22.4301757318],[113.9889164193,22.4303606823],[113.9892340314,22.4298361575],[113.9898841444,22.4299001243],[113.992006838,22.4319902869],[113.9927847105,22.4320080703],[113.9932514239,22.4303189355],[113.9964572474,22.4327197042],[113.9956556593,22.430231346],[113.9952473658,22.4294038889],[113.9946569808,22.4290052436],[113.9945176144,22.4277530962],[113.9935851034,22.4272798582],[113.9937569698,22.4257041507],[113.9956104199,22.425055543],[113.9973466557,22.4223661647],[113.9988445341,22.4226513238],[114.0011949091,22.4219407978],[114.0067690756,22.4219138095],[114.0069414158,22.4147737722],[114.012166265,22.414690005],[114.012172717,22.4045747598],[114.0516095021,22.4045830278],[114.0516246991,22.4086168383],[114.0597774499,22.4086020698],[114.0597259435,22.4048735716],[114.0574454682,22.4048735921],[114.0573737918,22.3978308867],[114.0658185576,22.3977042742],[114.0659621176,22.3918170659],[114.0668407885,22.3912210296],[114.0681855476,22.3925851018],[114.0692276768,22.3926734116],[114.0692271554,22.3933636314],[114.0702889707,22.392846381],[114.0705871877,22.3923727107],[114.0715864335,22.3929637331],[114.0719258578,22.3925059085],[114.0723931315,22.3929627931],[114.0736361985,22.3933265812],[114.0736410488,22.3937020996],[114.0739834704,22.393215935],[114.0741830425,22.3936130327],[114.0733321175,22.3947932653],[114.0742423689,22.3963247858],[114.075481829,22.3966602467],[114.0770772928,22.3964272677],[114.0782592627,22.3968980119],[114.0784249205,22.3972539596],[114.0793494938,22.3969558991],[114.0807718971,22.3974735297],[114.0812326018,22.3982158749],[114.0824282798,22.3987077462],[114.0826396068,22.3997801777],[114.0832490147,22.4004480929],[114.0845005307,22.4008088493],[114.0853070538,22.4017820638],[114.0867239437,22.4020141397],[114.0879786736,22.4013579831],[114.0890695821,22.4014509609],[114.0903475339,22.399479344],[114.0922253816,22.3993655238],[114.0949597402,22.4008458291],[114.0960112109,22.4021141766],[114.0961003645,22.4026685672],[114.0968938541,22.4030044986],[114.0968483987,22.4035212191],[114.0974387396,22.4037438047],[114.0976409558,22.4043663307],[114.1007812508,22.4073345621],[114.1044436018,22.4074063033],[114.10534043,22.406577287],[114.1052633275,22.4056269389],[114.1067928565,22.4048025378],[114.1074866388,22.4061445606],[114.1090915304,22.405369007],[114.112450495,22.4067840764],[114.1128216371,22.4081047798],[114.1145936218,22.4084538592],[114.1157107786,22.4101220718],[114.1169688937,22.4104181837],[114.116804479,22.4113575013],[114.1174116347,22.4118178742],[114.1204783993,22.4109596134],[114.123145985,22.4109574421],[114.1233674902,22.4109920473],[114.1231692472,22.4120922563],[114.1240861693,22.4127985085],[114.124628805,22.412378469],[114.1242867879,22.4130892743],[114.1235958381,22.4128993167],[114.1238108929,22.4134806898],[114.1244140142,22.4137549347],[114.1235110138,22.4140333915],[114.1243403271,22.4142673277],[114.1255729654,22.4159348684],[114.1260554834,22.4185723191],[114.1260049707,22.4200296233],[114.1243714507,22.422736629],[114.1229633174,22.4232932376],[114.1219846038,22.4246406254],[114.121354235,22.4257829456],[114.1214453185,22.4269544278],[114.1210192527,22.4276005287],[114.1201547625,22.4277708404],[114.1194144002,22.4283863576],[114.1184522954,22.4283855242],[114.117956524,22.4289449985],[114.11751291,22.4305115962],[114.1166222947,22.4319025274],[114.1168985106,22.4348092294],[114.1151364641,22.436391398],[114.1136784837,22.4395113363],[114.112502434,22.44112894],[114.1128573207,22.4419555301],[114.1119547181,22.443798186],[114.1152664751,22.4485025412],[114.1180763674,22.450932877],[114.1185095636,22.4527904709],[114.1205767211,22.4549315639],[114.1217988669,22.4556443065],[114.1223000357,22.4578552093],[114.1238594859,22.4591539806],[114.1239317394,22.4600293424],[114.1243816423,22.4604256997],[114.1240698146,22.4614020227],[114.1249324067,22.4623365722],[114.1248161968,22.4635548403],[114.1268582692,22.4638314739],[114.1274907249,22.4646743252],[114.12790925,22.4665079721],[114.1265773902,22.4661704657],[114.1259541948,22.4656945293],[114.1236697686,22.4662553768],[114.1226544102,22.4656806043],[114.1215071209,22.4659491681],[114.1207636287,22.4666095143],[114.1202983772,22.4677626277],[114.1188160158,22.468016994],[114.1168639972,22.4693428855],[114.1161017408,22.4694247681],[114.1160879959,22.4702628133],[114.1148750703,22.4714269422],[114.1143858148,22.4709488726],[114.113406705,22.4713298722],[114.1123419746,22.4712134361],[114.1116211286,22.4706483747],[114.1098225794,22.4703087798],[114.1088658983,22.469173734],[114.104254556,22.469984273],[114.1025853912,22.4693467962],[114.1007057436,22.4678802282],[114.099470162,22.4673940021],[114.0983512842,22.467384368],[114.0962788488,22.4667470987],[114.0942261449,22.4668170938],[114.0924407515,22.466020228],[114.0889336252,22.4660933255],[114.0901089632,22.4682552217],[114.0895544988,22.4714406468],[114.0897737944,22.47312967],[114.0893282474,22.4766872131],[114.0896447383,22.4792909421],[114.0892652273,22.4815794119],[114.0912480869,22.4843595749],[114.0922911694,22.4848957457],[114.0920978014,22.4871309756],[114.0926547424,22.4905769515],[114.092458502,22.491086687],[114.0931983504,22.4920145755],[114.0924584921,22.4925134172],[114.0927879521,22.4928661088],[114.0921131003,22.4935265997],[114.0920740119,22.494009064],[114.0913826307,22.4941624774],[114.090570412,22.4959006117],[114.0897030827,22.4965319472],[114.0903154408,22.4970943918],[114.0903919282,22.4987765142],[114.0910613186,22.4993995714],[114.0916984968,22.5012632933],[114.0912249513,22.5032003486],[114.0913678318,22.5048522528],[114.0893110985,22.5044826095],[114.0904381109,22.5070359617],[114.0896642423,22.5083577545],[114.0914102083,22.5085345927],[114.0923560686,22.5090362684],[114.0932689512,22.5103909217],[114.0918239381,22.5120363303],[114.0914403202,22.5145121377],[114.0905271462,22.5149272375],[114.0913506601,22.5165466412],[114.0911581429,22.5179494786],[114.0917503684,22.5190923957],[114.0916612293,22.5208024737],[114.0896659082,22.5209518335],[114.0897553284,22.5215314595],[114.0892891404,22.5223743354],[114.0894155939,22.5231696898],[114.0886469623,22.5224996875],[114.0885533797,22.5215932137],[114.0879659091,22.520669536],[114.0859785486,22.519166],[114.085431193,22.519183182],[114.0846546545,22.5202968061],[114.0841142175,22.5204847698],[114.0853191028,22.5225051085],[114.0851226844,22.523807942],[114.0837366495,22.5250494978],[114.0796771857,22.5273014815],[114.0780580712,22.5294593886],[114.0747920754,22.520772744],[114.0736020311,22.5191244232],[114.0725409332,22.5184013826],[114.0695335418,22.5174688367],[114.0647573356,22.5166603636],[114.0606759845,22.5141047771],[114.0588817627,22.5123449629],[114.0579984377,22.5107526121],[114.0574811183,22.5091362632],[114.0571014936,22.5059248088],[114.0565508918,22.5048187829],[114.0551627921,22.5036148676],[114.0524828289,22.5025564118],[114.0496956192,22.5024696487],[114.0453526624,22.5040747519],[114.037147442,22.5056801277],[114.0254247647,22.5067677088],[114.0245383544,22.5066181701],[114.0204242657,22.5038315394],[114.0166474689,22.5019568539],[114.0133842164,22.5008725692],[114.0116259606,22.5006552752],[114.0098588696,22.5011641115],[114.0075608882,22.5024383539],[114.0025178392,22.5072902789],[114.0001221449,22.5090112016],[113.9980717953,22.5099975547],[113.9952245647,22.5101576831],[113.9478063711,22.4723579789],[113.8742174606,22.4316426193]]]}},{"type":"Feature","properties":{"district_code":"YTM","district":"Yau Tsim Mong District","district_zh":"油尖旺區"},"geometry":{"type":"Polygon","coordinates":[[[114.1743016294,22.2880486111],[114.1868577456,22.2941241259],[114.1868581824,22.3002448176],[114.1865894126,22.3010880045],[114.1857132643,22.301273363],[114.1853748403,22.3028485189],[114.1846082438,22.3040280457],[114.1834970951,22.3039261757],[114.1824839456,22.3047265611],[114.1817339012,22.3070375456],[114.1765249702,22.3124598476],[114.175603557,22.313936175],[114.1731297132,22.3196517922],[114.1727631245,22.321105438],[114.1728170484,22.3229135173],[114.1744743407,22.3266480774],[114.1605871118,22.3262096856],[114.1618915384,22.3252292338],[114.1619231979,22.3246154728],[114.1616519951,22.3249581946],[114.1583671103,22.3247564626],[114.1580791117,22.3244798948],[114.1590049963,22.3236484717],[114.1590124438,22.3227858796],[114.1586062739,22.3220701421],[114.1576745642,22.3218320967],[114.1549730772,22.3250563346],[114.1526954828,22.3226131921],[114.1495262565,22.3226126893],[114.1495089876,22.2974776618],[114.1743016294,22.2880486111]]]}}]}
